#aV2021  6 29  0  0  0.00000000     288 DD+AD WGS84 FIT  NGA
## 2164 172800.00000000   300.00000000 59394 0.0000000000000
+   32     1  2  3  4  5  6  7  8  9 10 11 12 13 14 15 16 17
+         18 19 20 21 22 23 24 25 26 27 28 29 30 31 32  0  0
+          0  0  0  0  0  0  0  0  0  0  0  0  0  0  0  0  0
+          0  0  0  0  0  0  0  0  0  0  0  0  0  0  0  0  0
+          0  0  0  0  0  0  0  0  0  0  0  0  0  0  0  0  0
++         2  2  2  2  2  2  2  2  2  2  2  2  2  2  2  2  2
++         2  2  2  2  2  2  2  2  2  2  2  2  2  2  2  0  0
++         0  0  0  0  0  0  0  0  0  0  0  0  0  0  0  0  0
++         0  0  0  0  0  0  0  0  0  0  0  0  0  0  0  0  0
++         0  0  0  0  0  0  0  0  0  0  0  0  0  0  0  0  0
%c cc cc ccc ccc cccc cccc cccc cccc ccccc ccccc ccccc ccccc
%c cc cc ccc ccc cccc cccc cccc cccc ccccc ccccc ccccc ccccc
%f  0.0000000  0.000000000  0.00000000000  0.000000000000000
%f  0.0000000  0.000000000  0.00000000000  0.000000000000000
%i    0    0    0    0      0      0      0      0         0
%i    0    0    0    0      0      0      0      0         0
/*      NGA, ST. LOUIS,MO.                                  
/*   EPHEMERIS COMPUTED FROM 1 DAYS OF DATA                 
/*   EPOCHA v6 SMOOTHER                                     
/*   G2139 IERS2010 SATIGS SATAPC                           
*  2021  6 29  7  5  0.00000000
P  1 -20250.899534 -14180.505650 -10430.148344    643.844360                    
V  1  12508.284737   2665.363010 -28316.612858     -0.116822                    
P  2  -2732.734485  15245.540435  22230.135307   -615.919723                    
V  2 -25915.837425  -6291.268565   1222.125756     -0.027550                    
P  3 -12295.586199 -20624.422023  11384.997748   -205.535944                    
V  3   -929.647247 -14661.333983 -27236.821822     -0.110213                    
P  4 -12010.092565  -9685.429432  21633.177654   -201.176777                    
V  4  20855.036445 -17841.542708   3532.227013     -0.009840                    
P  5   5888.142692  25785.033030    731.797111    -46.367322                    
V  5  -3276.323174   -343.298543  31770.692415     -0.011214                    
P  6 -14676.828191   9278.186308  20172.517372     33.037336                    
V  6 -23873.585340  -8738.407835 -13330.860037      0.050487                    
P  7 -25827.123061  -6487.479534  -2926.819980    190.142086                    
V  7  -3029.950251  -3867.866812  30934.233023      0.093298                    
P  8  -2671.057223 -16721.447815 -20394.637923    -26.883247                    
V  8  19736.305763 -16860.659472  11544.104205     -0.014549                    
P  9 -19788.185197   1289.555109  17622.700194   -353.342561                    
V  9  15286.054911 -16615.108156  18294.928107     -0.017123                    
P 10  12918.977831  -9080.637878 -21194.931483   -151.839363                    
V 10   6383.815051  26459.871745  -7668.938496     -0.076025                    
P 11  -3972.886526  14773.316265  21695.259049      0.586715                    
V 11 -25731.175112  -9962.206134   2070.056009      0.152898                    
P 12  10177.510842  22171.449542  10415.904580    -61.548458                    
V 12   -237.683688  13693.397701 -28101.362054     -0.052402                    
P 13  -6792.438855  19043.967751 -17282.824548    151.025108                    
V 13 -18867.671645  10890.990592  19703.303820      0.050154                    
P 14 -13512.305458   9034.241055 -21006.685491     59.200634                    
V 14  -5090.117268 -26198.361473  -8033.531730     -0.083946                    
P 15   5398.942065  16711.113929 -20205.466049   -139.092061                    
V 15 -17623.477219  17875.265201  10615.189309      0.026656                    
P 16    901.051761 -25619.354764   5712.847597   -348.886872                    
V 16   3621.626865   7281.961117  31212.709950     -0.060767                    
P 17 -22404.882741  12856.819633  -5755.564008    465.879613                    
V 17   4816.765666  -6555.085633 -31092.013030      0.059286                    
P 18  25449.733183   4212.864542  -6500.909721    344.214671                    
V 18   6951.687308   4991.315097  30436.740835     -0.022261                    
P 19 -20449.466063  16637.964955   2269.787576     19.619525                    
V 19  -3982.228209     12.675855 -32100.892092      0.050097                    
P 20   3613.576860  25388.678231   7382.658427    520.697566                    
V 20  -6135.239798  -7723.653458  29190.406380     -0.003468                    
P 21 -14917.149235 -15025.745419 -15636.232404    128.088342                    
V 21  20808.188212   3182.327087 -21442.713468      0.024288                    
P 22 -10072.988219 -24539.870177   2954.720774   -576.448011                    
V 22   2164.033807  -4382.698959 -30762.282353      0.096163                    
P 23  15837.461145   3570.226139 -21052.708706     91.236860                    
V 23   5489.362960  26095.294833   8508.118509     -0.047058                    
P 24  16914.755444  15156.871279 -14334.990933    153.595656                    
V 24 -17740.076586  -1999.259548 -23059.188404      0.161880                    
P 25  15377.685546  11802.405766  18010.523627    164.436538                    
V 25   3392.061192  23107.722083 -17517.540684      0.067802                    
P 26   6235.762446 -20576.678128  15355.630177    104.334410                    
V 26   7430.411053  18497.568592  21956.633176      0.046898                    
P 27   7955.866910 -20547.091940 -14738.303920   -154.827709                    
V 27  15076.235353 -10927.618557  24016.393236     -0.060856                    
P 28 -10764.720752  15449.032682 -18262.976308    546.620055                    
V 28  -4095.489155 -23917.600136 -17123.953911     -0.064363                    
P 29  18976.671462    921.446906  18532.962959   -371.950149                    
V 29 -17958.217239  15292.478075  17525.617889     -0.061243                    
P 30 -22147.532711   3363.269059 -14382.497975   -444.748266                    
V 30 -16447.374890  -8509.397671  22991.575351     -0.045787                    
P 31  13173.420934 -10666.001710  20468.274712   -125.760365                    
V 31  24324.084446   9473.224740 -10214.845806     -0.021487                    
P 32  21079.579430 -15506.542004  -3849.157753     16.562261                    
V 32  -1687.950155   5659.507762 -31280.923061     -0.017019                    
EOF
